ONEWEB-0018             
1 45434U 20020L   26123.20281770  .00000349  00000+0  94881-3 0  9993
2 45434  87.8922  30.0113 0002167  73.7954 286.3412 13.11415846296734
ONEWEB-0083             
1 45435U 20020M   26123.19279563 -.00003033  00000+0 -85864-2 0  9994
2 45435  87.8931  30.0039 0000869  64.6105 295.5113 13.11504767296771
ONEWEB-0095             
1 45436U 20020N   26123.18429996  .00000580  00000+0  16003-2 0  9992
2 45436  87.8932  30.0138 0001261  98.8939 261.2332 13.11420713296775
ONEWEB-0092             
1 45437U 20020P   26123.23094034 -.00000439  00000+0 -12639-2 0  9996
2 45437  87.8935  30.0035 0001723  89.3154 270.8172 13.11952693296890
ONEWEB-0085             
1 45438U 20020Q   26123.19249919  .00000076  00000+0  17792-3 0  9997
2 45438  87.8929  30.0144 0002020  81.3435 278.7921 13.11449209296770
ONEWEB-0096             
1 45439U 20020R   26123.19433103  .00000575  00000+0  15877-2 0  9993
2 45439  87.8932  30.0057 0001898  80.6651 279.4692 13.11418109296769
ONEWEB-0037             
1 45440U 20020S   26123.24455241 -.00000057  00000+0 -19517-3 0  9991
2 45440  87.8944  29.9727 0001753  81.4979 278.6348 13.11910718296804
ONEWEB-0042             
1 45441U 20020T   26123.18402591  .00000540  00000+0  14867-2 0  9992
2 45441  87.8932  30.0045 0001901  81.1577 278.9766 13.11418904296766
ONEWEB-0098             
1 45442U 20020U   26123.17992443  .00000475  00000+0  13052-2 0  9994
2 45442  87.8931  30.0157 0001816  76.6853 283.4477 13.11417903296747
ONEWEB-0055             
1 45443U 20020V   26123.23630814 -.00000308  00000+0 -89894-3 0  9998
2 45443  87.8934  30.0034 0001882  72.8875 287.2459 13.11920190296727
ONEWEB-0093             
1 45444U 20020W   26123.21481118 -.00000215  00000+0 -64251-3 0  9995
2 45444  87.8931  29.9993 0002177  86.7948 273.3429 13.11416958296780
ONEWEB-0029             
1 45445U 20020X   26123.23190611 -.00000504  00000+0 -14689-2 0  9993
2 45445  87.8920  30.0052 0001974  82.0922 278.0429 13.10887001296763
ONEWEB-0068             
1 45446U 20020Y   26123.21454199 -.00000211  00000+0 -63199-3 0  9992
2 45446  87.8935  30.0026 0002029  80.7651 279.3707 13.11416107296700
ONEWEB-0046             
1 45447U 20020Z   26123.20620165  .00000155  00000+0  40246-3 0  9993
2 45447  87.8932  30.0115 0001919  86.8224 273.3123 13.11416524296717
ONEWEB-0063             
1 45448U 20020AA  26123.23502029 -.00000395  00000+0 -11513-2 0  9997
2 45448  87.8932  30.0035 0001750  86.9209 273.2119 13.11418932296805
ONEWEB-0019             
1 45449U 20020AB  26123.19758902  .00000491  00000+0  13496-2 0  9993
2 45449  87.8926  30.0001 0001765  74.0088 286.1235 13.11417306296649
ONEWEB-0094             
1 45450U 20020AC  26123.24871356  .00000050  00000+0  95122-4 0  9999
2 45450  87.9188  14.7763 0002000  76.5716 283.5638 13.17647865300391
