[{"OBJECT_NAME":"ONEWEB-0018","OBJECT_ID":"2020-020L","EPOCH":"2026-05-03T04:52:03.449280","MEAN_MOTION":13.11415846,"ECCENTRICITY":0.0002167,"INCLINATION":87.8922,"RA_OF_ASC_NODE":30.0113,"ARG_OF_PERICENTER":73.7954,"MEAN_ANOMALY":286.3412,"EPHEMERIS_TYPE":0,"CLASSIFICATION_TYPE":"U","NORAD_CAT_ID":45434,"ELEMENT_SET_NO":999,"REV_AT_EPOCH":29673,"BSTAR":0.00094881,"MEAN_MOTION_DOT":3.49e-06,"MEAN_MOTION_DDOT":0.0},{"OBJECT_NAME":"ONEWEB-0083","OBJECT_ID":"2020-020M","EPOCH":"2026-05-03T04:37:37.542432","MEAN_MOTION":13.11504767,"ECCENTRICITY":8.69e-05,"INCLINATION":87.8931,"RA_OF_ASC_NODE":30.0039,"ARG_OF_PERICENTER":64.6105,"MEAN_ANOMALY":295.5113,"EPHEMERIS_TYPE":0,"CLASSIFICATION_TYPE":"U","NORAD_CAT_ID":45435,"ELEMENT_SET_NO":999,"REV_AT_EPOCH":29677,"BSTAR":-0.0085864,"MEAN_MOTION_DOT":-3.033e-05,"MEAN_MOTION_DDOT":0.0},{"OBJECT_NAME":"ONEWEB-0095","OBJECT_ID":"2020-020N","EPOCH":"2026-05-03T04:25:23.516544","MEAN_MOTION":13.11420713,"ECCENTRICITY":0.0001261,"INCLINATION":87.8932,"RA_OF_ASC_NODE":30.0138,"ARG_OF_PERICENTER":98.8939,"MEAN_ANOMALY":261.2332,"EPHEMERIS_TYPE":0,"CLASSIFICATION_TYPE":"U","NORAD_CAT_ID":45436,"ELEMENT_SET_NO":999,"REV_AT_EPOCH":29677,"BSTAR":0.0016003,"MEAN_MOTION_DOT":5.8e-06,"MEAN_MOTION_DDOT":0.0},{"OBJECT_NAME":"ONEWEB-0092","OBJECT_ID":"2020-020P","EPOCH":"2026-05-03T05:32:33.245376","MEAN_MOTION":13.11952693,"ECCENTRICITY":0.0001723,"INCLINATION":87.8935,"RA_OF_ASC_NODE":30.0035,"ARG_OF_PERICENTER":89.3154,"MEAN_ANOMALY":270.8172,"EPHEMERIS_TYPE":0,"CLASSIFICATION_TYPE":"U","NORAD_CAT_ID":45437,"ELEMENT_SET_NO":999,"REV_AT_EPOCH":29689,"BSTAR":-0.0012639,"MEAN_MOTION_DOT":-4.39e-06,"MEAN_MOTION_DDOT":0.0},{"OBJECT_NAME":"ONEWEB-0085","OBJECT_ID":"2020-020Q","EPOCH":"2026-05-03T04:37:11.930016","MEAN_MOTION":13.11449209,"ECCENTRICITY":0.000202,"INCLINATION":87.8929,"RA_OF_ASC_NODE":30.0144,"ARG_OF_PERICENTER":81.3435,"MEAN_ANOMALY":278.7921,"EPHEMERIS_TYPE":0,"CLASSIFICATION_TYPE":"U","NORAD_CAT_ID":45438,"ELEMENT_SET_NO":999,"REV_AT_EPOCH":29677,"BSTAR":0.00017792,"MEAN_MOTION_DOT":7.6e-07,"MEAN_MOTION_DDOT":0.0},{"OBJECT_NAME":"ONEWEB-0096","OBJECT_ID":"2020-020R","EPOCH":"2026-05-03T04:39:50.200992","MEAN_MOTION":13.11418109,"ECCENTRICITY":0.0001898,"INCLINATION":87.8932,"RA_OF_ASC_NODE":30.0057,"ARG_OF_PERICENTER":80.6651,"MEAN_ANOMALY":279.4692,"EPHEMERIS_TYPE":0,"CLASSIFICATION_TYPE":"U","NORAD_CAT_ID":45439,"ELEMENT_SET_NO":999,"REV_AT_EPOCH":29676,"BSTAR":0.0015877,"MEAN_MOTION_DOT":5.75e-06,"MEAN_MOTION_DDOT":0.0},{"OBJECT_NAME":"ONEWEB-0037","OBJECT_ID":"2020-020S","EPOCH":"2026-05-03T05:52:09.328224","MEAN_MOTION":13.11910718,"ECCENTRICITY":0.0001753,"INCLINATION":87.8944,"RA_OF_ASC_NODE":29.9727,"ARG_OF_PERICENTER":81.4979,"MEAN_ANOMALY":278.6348,"EPHEMERIS_TYPE":0,"CLASSIFICATION_TYPE":"U","NORAD_CAT_ID":45440,"ELEMENT_SET_NO":999,"REV_AT_EPOCH":29680,"BSTAR":-0.00019517000000000002,"MEAN_MOTION_DOT":-5.7e-07,"MEAN_MOTION_DDOT":0.0},{"OBJECT_NAME":"ONEWEB-0042","OBJECT_ID":"2020-020T","EPOCH":"2026-05-03T04:24:59.838624","MEAN_MOTION":13.11418904,"ECCENTRICITY":0.0001901,"INCLINATION":87.8932,"RA_OF_ASC_NODE":30.0045,"ARG_OF_PERICENTER":81.1577,"MEAN_ANOMALY":278.9766,"EPHEMERIS_TYPE":0,"CLASSIFICATION_TYPE":"U","NORAD_CAT_ID":45441,"ELEMENT_SET_NO":999,"REV_AT_EPOCH":29676,"BSTAR":0.0014867,"MEAN_MOTION_DOT":5.4e-06,"MEAN_MOTION_DDOT":0.0},{"OBJECT_NAME":"ONEWEB-0098","OBJECT_ID":"2020-020U","EPOCH":"2026-05-03T04:19:05.470752","MEAN_MOTION":13.11417903,"ECCENTRICITY":0.0001816,"INCLINATION":87.8931,"RA_OF_ASC_NODE":30.0157,"ARG_OF_PERICENTER":76.6853,"MEAN_ANOMALY":283.4477,"EPHEMERIS_TYPE":0,"CLASSIFICATION_TYPE":"U","NORAD_CAT_ID":45442,"ELEMENT_SET_NO":999,"REV_AT_EPOCH":29674,"BSTAR":0.0013052,"MEAN_MOTION_DOT":4.75e-06,"MEAN_MOTION_DDOT":0.0},{"OBJECT_NAME":"ONEWEB-0055","OBJECT_ID":"2020-020V","EPOCH":"2026-05-03T05:40:17.023296","MEAN_MOTION":13.1192019,"ECCENTRICITY":0.0001882,"INCLINATION":87.8934,"RA_OF_ASC_NODE":30.0034,"ARG_OF_PERICENTER":72.8875,"MEAN_ANOMALY":287.2459,"EPHEMERIS_TYPE":0,"CLASSIFICATION_TYPE":"U","NORAD_CAT_ID":45443,"ELEMENT_SET_NO":999,"REV_AT_EPOCH":29672,"BSTAR":-0.00089894,"MEAN_MOTION_DOT":-3.08e-06,"MEAN_MOTION_DDOT":0.0},{"OBJECT_NAME":"ONEWEB-0093","OBJECT_ID":"2020-020W","EPOCH":"2026-05-03T05:09:19.685952","MEAN_MOTION":13.11416958,"ECCENTRICITY":0.0002177,"INCLINATION":87.8931,"RA_OF_ASC_NODE":29.9993,"ARG_OF_PERICENTER":86.7948,"MEAN_ANOMALY":273.3429,"EPHEMERIS_TYPE":0,"CLASSIFICATION_TYPE":"U","NORAD_CAT_ID":45444,"ELEMENT_SET_NO":999,"REV_AT_EPOCH":29678,"BSTAR":-0.00064251,"MEAN_MOTION_DOT":-2.15e-06,"MEAN_MOTION_DDOT":0.0},{"OBJECT_NAME":"ONEWEB-0029","OBJECT_ID":"2020-020X","EPOCH":"2026-05-03T05:33:56.687904","MEAN_MOTION":13.10887001,"ECCENTRICITY":0.0001974,"INCLINATION":87.892,"RA_OF_ASC_NODE":30.0052,"ARG_OF_PERICENTER":82.0922,"MEAN_ANOMALY":278.0429,"EPHEMERIS_TYPE":0,"CLASSIFICATION_TYPE":"U","NORAD_CAT_ID":45445,"ELEMENT_SET_NO":999,"REV_AT_EPOCH":29676,"BSTAR":-0.0014689,"MEAN_MOTION_DOT":-5.04e-06,"MEAN_MOTION_DDOT":0.0},{"OBJECT_NAME":"ONEWEB-0068","OBJECT_ID":"2020-020Y","EPOCH":"2026-05-03T05:08:56.427936","MEAN_MOTION":13.11416107,"ECCENTRICITY":0.0002029,"INCLINATION":87.8935,"RA_OF_ASC_NODE":30.0026,"ARG_OF_PERICENTER":80.7651,"MEAN_ANOMALY":279.3707,"EPHEMERIS_TYPE":0,"CLASSIFICATION_TYPE":"U","NORAD_CAT_ID":45446,"ELEMENT_SET_NO":999,"REV_AT_EPOCH":29670,"BSTAR":-0.00063199,"MEAN_MOTION_DOT":-2.11e-06,"MEAN_MOTION_DDOT":0.0},{"OBJECT_NAME":"ONEWEB-0046","OBJECT_ID":"2020-020Z","EPOCH":"2026-05-03T04:56:55.822560","MEAN_MOTION":13.11416524,"ECCENTRICITY":0.0001919,"INCLINATION":87.8932,"RA_OF_ASC_NODE":30.0115,"ARG_OF_PERICENTER":86.8224,"MEAN_ANOMALY":273.3123,"EPHEMERIS_TYPE":0,"CLASSIFICATION_TYPE":"U","NORAD_CAT_ID":45447,"ELEMENT_SET_NO":999,"REV_AT_EPOCH":29671,"BSTAR":0.00040246,"MEAN_MOTION_DOT":1.55e-06,"MEAN_MOTION_DDOT":0.0},{"OBJECT_NAME":"ONEWEB-0063","OBJECT_ID":"2020-020AA","EPOCH":"2026-05-03T05:38:25.753056","MEAN_MOTION":13.11418932,"ECCENTRICITY":0.000175,"INCLINATION":87.8932,"RA_OF_ASC_NODE":30.0035,"ARG_OF_PERICENTER":86.9209,"MEAN_ANOMALY":273.2119,"EPHEMERIS_TYPE":0,"CLASSIFICATION_TYPE":"U","NORAD_CAT_ID":45448,"ELEMENT_SET_NO":999,"REV_AT_EPOCH":29680,"BSTAR":-0.0011513,"MEAN_MOTION_DOT":-3.95e-06,"MEAN_MOTION_DDOT":0.0},{"OBJECT_NAME":"ONEWEB-0019","OBJECT_ID":"2020-020AB","EPOCH":"2026-05-03T04:44:31.691328","MEAN_MOTION":13.11417306,"ECCENTRICITY":0.0001765,"INCLINATION":87.8926,"RA_OF_ASC_NODE":30.0001,"ARG_OF_PERICENTER":74.0088,"MEAN_ANOMALY":286.1235,"EPHEMERIS_TYPE":0,"CLASSIFICATION_TYPE":"U","NORAD_CAT_ID":45449,"ELEMENT_SET_NO":999,"REV_AT_EPOCH":29664,"BSTAR":0.0013496,"MEAN_MOTION_DOT":4.91e-06,"MEAN_MOTION_DDOT":0.0},{"OBJECT_NAME":"ONEWEB-0094","OBJECT_ID":"2020-020AC","EPOCH":"2026-05-03T05:58:08.851584","MEAN_MOTION":13.17647865,"ECCENTRICITY":0.0002,"INCLINATION":87.9188,"RA_OF_ASC_NODE":14.7763,"ARG_OF_PERICENTER":76.5716,"MEAN_ANOMALY":283.5638,"EPHEMERIS_TYPE":0,"CLASSIFICATION_TYPE":"U","NORAD_CAT_ID":45450,"ELEMENT_SET_NO":999,"REV_AT_EPOCH":30039,"BSTAR":9.5122e-05,"MEAN_MOTION_DOT":5e-07,"MEAN_MOTION_DDOT":0.0}]